*******************************************************************************
Ephemeris / WWW_USER Mon Mar 24 09:10:59 2025 Pasadena, USA      / Horizons    
*******************************************************************************
Target body name: 584778 (2017 RG16)              {source: JPL#32}
Center body name: Earth (399)                     {source: DE441}
Center-site name: Mauna Kea
*******************************************************************************
Start time      : A.D. 2018-Oct-22 04:03:00.0000 UT      
Stop  time      : A.D. 2018-Oct-22 16:09:00.0000 UT      
Step-size       : 1 minutes
*******************************************************************************
Target pole/equ : undefined
Target radii    : undefined                                                    
Center geodetic : 204.5278, 19.8260847, 4.21024   {E-lon(deg),Lat(deg),Alt(km)}
Center cylindric: 204.5278, 6006.35451, 2151.0229 {E-lon(deg),Dxy(km),Dz(km)}
Center pole/equ : ITRF93                          {East-longitude positive}
Center radii    : 6378.137, 6378.137, 6356.752 km {Equator_a, b, pole_c}       
Target primary  : Sun
Vis. interferer : MOON (R_eq= 1737.400) km        {source: DE441}
Rel. light bend : Sun                             {source: DE441}
Rel. lght bnd GM: 1.3271E+11 km^3/s^2                                          
Small-body perts: Yes                             {source: SB441-N16}
Atmos refraction: NO (AIRLESS)
RA format       : HMS
Time format     : CAL 
Calendar mode   : Mixed Julian/Gregorian
RTS-only print  : NO       
EOP file        : eop.250321.p250617                                           
EOP coverage    : DATA-BASED 1962-JAN-20 TO 2025-MAR-21. PREDICTS-> 2025-JUN-16
Units conversion: 1 au= 149597870.700 km, c= 299792.458 km/s, 1 day= 86400.0 s 
Table cut-offs 1: Elevation (-90.0deg=NO ),Airmass (>38.000=NO), Daylight (YES)
Table cut-offs 2: Solar elongation (  0.0,180.0=NO ),Local Hour Angle( 0.0=NO )
Table cut-offs 3: RA/DEC angular rate (     0.0=NO )                           
*******************************************************************************
Initial IAU76/J2000 heliocentric ecliptic osculating elements (au, days, deg.):
  EPOCH=  2458734.5 ! 2019-Sep-08.00 (TDB)         Residual RMS= .14786        
   EC= .9085798704456644   QR= 7.106644157383132   TP= 2457926.6828443832      
   OM= .547367620295521    W=  323.0265763955561   IN= 74.86683883750447       
  Equivalent ICRF heliocentric cartesian coordinates (au, au/d):
   X= 8.360714527577798E+00  Y=-2.241293784086399E-01  Z= 2.069107023705337E+00
  VX= 1.416407206608659E-03 VY=-1.132497676729848E-03 VZ= 7.848232694960624E-03
Asteroid physical parameters (km, seconds, rotational period in hours):        
   GM= n.a.                RAD= n.a.               ROTPER= n.a.                
   H= 11.32                G= .150                 B-V= n.a.                   
                           ALBEDO= n.a.            STYP= n.a.                  
*******************************************************************************
 Date__(UT)__HR:MN     R.A._________(ICRF)_________DEC
******************************************************
$$SOE
 2018-Oct-22 04:03 Cm  23 50 09.416113 -05 36 19.08454
 2018-Oct-22 04:04 Cm  23 50 09.395701 -05 36 19.01922
 2018-Oct-22 04:05 Cm  23 50 09.375289 -05 36 18.95390
 2018-Oct-22 04:06 Cm  23 50 09.354875 -05 36 18.88858
 2018-Oct-22 04:07 Cm  23 50 09.334460 -05 36 18.82326
 2018-Oct-22 04:08 Cm  23 50 09.314044 -05 36 18.75793
 2018-Oct-22 04:09 Cm  23 50 09.293627 -05 36 18.69261
 2018-Oct-22 04:10 Cm  23 50 09.273209 -05 36 18.62728
 2018-Oct-22 04:11 Cm  23 50 09.252789 -05 36 18.56194
 2018-Oct-22 04:12 Cm  23 50 09.232369 -05 36 18.49661
 2018-Oct-22 04:13 Cm  23 50 09.211947 -05 36 18.43127
 2018-Oct-22 04:14 Cm  23 50 09.191524 -05 36 18.36594
 2018-Oct-22 04:15 Cm  23 50 09.171100 -05 36 18.30059
 2018-Oct-22 04:16 Cm  23 50 09.150674 -05 36 18.23525
 2018-Oct-22 04:17 Nm  23 50 09.130248 -05 36 18.16991
 2018-Oct-22 04:18 Nm  23 50 09.109821 -05 36 18.10456
 2018-Oct-22 04:19 Nm  23 50 09.089392 -05 36 18.03921
 2018-Oct-22 04:20 Nm  23 50 09.068962 -05 36 17.97386
 2018-Oct-22 04:21 Nm  23 50 09.048531 -05 36 17.90850
 2018-Oct-22 04:22 Nm  23 50 09.028099 -05 36 17.84315
 2018-Oct-22 04:23 Nm  23 50 09.007666 -05 36 17.77779
 2018-Oct-22 04:24 Nm  23 50 08.987232 -05 36 17.71243
 2018-Oct-22 04:25 Nm  23 50 08.966796 -05 36 17.64707
 2018-Oct-22 04:26 Nm  23 50 08.946360 -05 36 17.58170
 2018-Oct-22 04:27 Nm  23 50 08.925922 -05 36 17.51633
 2018-Oct-22 04:28 Nm  23 50 08.905484 -05 36 17.45096
 2018-Oct-22 04:29 Nm  23 50 08.885044 -05 36 17.38559
 2018-Oct-22 04:30 Nm  23 50 08.864603 -05 36 17.32021
 2018-Oct-22 04:31 Nm  23 50 08.844161 -05 36 17.25484
 2018-Oct-22 04:32 Nm  23 50 08.823718 -05 36 17.18946
 2018-Oct-22 04:33 Nm  23 50 08.803274 -05 36 17.12408
 2018-Oct-22 04:34 Nm  23 50 08.782829 -05 36 17.05869
 2018-Oct-22 04:35 Nm  23 50 08.762382 -05 36 16.99331
 2018-Oct-22 04:36 Nm  23 50 08.741935 -05 36 16.92792
 2018-Oct-22 04:37 Nm  23 50 08.721487 -05 36 16.86253
 2018-Oct-22 04:38 Nm  23 50 08.701037 -05 36 16.79713
 2018-Oct-22 04:39 Nm  23 50 08.680587 -05 36 16.73174
 2018-Oct-22 04:40 Nm  23 50 08.660135 -05 36 16.66634
 2018-Oct-22 04:41 Nm  23 50 08.639683 -05 36 16.60094
 2018-Oct-22 04:42 Nm  23 50 08.619229 -05 36 16.53553
 2018-Oct-22 04:43 Am  23 50 08.598774 -05 36 16.47013
 2018-Oct-22 04:44 Am  23 50 08.578319 -05 36 16.40472
 2018-Oct-22 04:45 Am  23 50 08.557862 -05 36 16.33931
 2018-Oct-22 04:46 Am  23 50 08.537404 -05 36 16.27390
 2018-Oct-22 04:47 Am  23 50 08.516945 -05 36 16.20848
 2018-Oct-22 04:48 Am  23 50 08.496486 -05 36 16.14306
 2018-Oct-22 04:49 Am  23 50 08.476025 -05 36 16.07764
 2018-Oct-22 04:50 Am  23 50 08.455563 -05 36 16.01222
 2018-Oct-22 04:51 Am  23 50 08.435100 -05 36 15.94679
 2018-Oct-22 04:52 Am  23 50 08.414636 -05 36 15.88137
 2018-Oct-22 04:53 Am  23 50 08.394172 -05 36 15.81594
 2018-Oct-22 04:54 Am  23 50 08.373706 -05 36 15.75050
 2018-Oct-22 04:55 Am  23 50 08.353239 -05 36 15.68507
 2018-Oct-22 04:56 Am  23 50 08.332771 -05 36 15.61963
 2018-Oct-22 04:57 Am  23 50 08.312302 -05 36 15.55419
 2018-Oct-22 04:58 Am  23 50 08.291833 -05 36 15.48875
 2018-Oct-22 04:59 Am  23 50 08.271362 -05 36 15.42330
 2018-Oct-22 05:00 Am  23 50 08.250890 -05 36 15.35785
 2018-Oct-22 05:01 Am  23 50 08.230418 -05 36 15.29240
 2018-Oct-22 05:02 Am  23 50 08.209944 -05 36 15.22695
 2018-Oct-22 05:03 Am  23 50 08.189470 -05 36 15.16149
 2018-Oct-22 05:04 Am  23 50 08.168994 -05 36 15.09603
 2018-Oct-22 05:05 Am  23 50 08.148518 -05 36 15.03057
 2018-Oct-22 05:06 Am  23 50 08.128041 -05 36 14.96511
 2018-Oct-22 05:07 Am  23 50 08.107562 -05 36 14.89964
 2018-Oct-22 05:08  m  23 50 08.087083 -05 36 14.83417
 2018-Oct-22 05:09  m  23 50 08.066603 -05 36 14.76870
 2018-Oct-22 05:10  m  23 50 08.046122 -05 36 14.70323
 2018-Oct-22 05:11  m  23 50 08.025640 -05 36 14.63775
 2018-Oct-22 05:12  m  23 50 08.005157 -05 36 14.57227
 2018-Oct-22 05:13  m  23 50 07.984673 -05 36 14.50679
 2018-Oct-22 05:14  m  23 50 07.964189 -05 36 14.44130
 2018-Oct-22 05:15  m  23 50 07.943703 -05 36 14.37582
 2018-Oct-22 05:16  m  23 50 07.923217 -05 36 14.31033
 2018-Oct-22 05:17  m  23 50 07.902729 -05 36 14.24483
 2018-Oct-22 05:18  m  23 50 07.882241 -05 36 14.17934
 2018-Oct-22 05:19  m  23 50 07.861752 -05 36 14.11384
 2018-Oct-22 05:20  m  23 50 07.841262 -05 36 14.04834
 2018-Oct-22 05:21  m  23 50 07.820771 -05 36 13.98284
 2018-Oct-22 05:22  m  23 50 07.800280 -05 36 13.91733
 2018-Oct-22 05:23  m  23 50 07.779787 -05 36 13.85182
 2018-Oct-22 05:24  m  23 50 07.759294 -05 36 13.78631
 2018-Oct-22 05:25  m  23 50 07.738800 -05 36 13.72079
 2018-Oct-22 05:26  m  23 50 07.718305 -05 36 13.65528
 2018-Oct-22 05:27  m  23 50 07.697809 -05 36 13.58976
 2018-Oct-22 05:28  m  23 50 07.677312 -05 36 13.52423
 2018-Oct-22 05:29  m  23 50 07.656815 -05 36 13.45871
 2018-Oct-22 05:30  m  23 50 07.636316 -05 36 13.39318
 2018-Oct-22 05:31  m  23 50 07.615817 -05 36 13.32765
 2018-Oct-22 05:32  m  23 50 07.595317 -05 36 13.26212
 2018-Oct-22 05:33  m  23 50 07.574816 -05 36 13.19658
 2018-Oct-22 05:34  m  23 50 07.554315 -05 36 13.13104
 2018-Oct-22 05:35  m  23 50 07.533812 -05 36 13.06550
 2018-Oct-22 05:36  m  23 50 07.513309 -05 36 12.99995
 2018-Oct-22 05:37  m  23 50 07.492805 -05 36 12.93441
 2018-Oct-22 05:38  m  23 50 07.472301 -05 36 12.86885
 2018-Oct-22 05:39  m  23 50 07.451795 -05 36 12.80330
 2018-Oct-22 05:40  m  23 50 07.431289 -05 36 12.73775
 2018-Oct-22 05:41  m  23 50 07.410782 -05 36 12.67219
 2018-Oct-22 05:42  m  23 50 07.390274 -05 36 12.60662
 2018-Oct-22 05:43  m  23 50 07.369766 -05 36 12.54106
 2018-Oct-22 05:44  m  23 50 07.349257 -05 36 12.47549
 2018-Oct-22 05:45  m  23 50 07.328747 -05 36 12.40992
 2018-Oct-22 05:46  m  23 50 07.308236 -05 36 12.34435
 2018-Oct-22 05:47  m  23 50 07.287724 -05 36 12.27877
 2018-Oct-22 05:48  m  23 50 07.267212 -05 36 12.21319
 2018-Oct-22 05:49  m  23 50 07.246699 -05 36 12.14761
 2018-Oct-22 05:50  m  23 50 07.226186 -05 36 12.08203
 2018-Oct-22 05:51  m  23 50 07.205672 -05 36 12.01644
 2018-Oct-22 05:52  m  23 50 07.185157 -05 36 11.95085
 2018-Oct-22 05:53  m  23 50 07.164641 -05 36 11.88526
 2018-Oct-22 05:54  m  23 50 07.144125 -05 36 11.81966
 2018-Oct-22 05:55  m  23 50 07.123608 -05 36 11.75406
 2018-Oct-22 05:56  m  23 50 07.103090 -05 36 11.68846
 2018-Oct-22 05:57  m  23 50 07.082571 -05 36 11.62285
 2018-Oct-22 05:58  m  23 50 07.062052 -05 36 11.55725
 2018-Oct-22 05:59  m  23 50 07.041533 -05 36 11.49164
 2018-Oct-22 06:00  m  23 50 07.021012 -05 36 11.42602
 2018-Oct-22 06:01  m  23 50 07.000491 -05 36 11.36040
 2018-Oct-22 06:02  m  23 50 06.979970 -05 36 11.29479
 2018-Oct-22 06:03  m  23 50 06.959447 -05 36 11.22916
 2018-Oct-22 06:04  m  23 50 06.938924 -05 36 11.16354
 2018-Oct-22 06:05  m  23 50 06.918401 -05 36 11.09791
